BEESAT-4                
1 41619U 16040W   22272.40275558  .00016623  00000+0  51070-3 0  9996
2 41619  97.2052 320.3702 0010578 104.3865 255.8553 15.33723775336641
CAS-2T & KS-1Q          
1 41847U 16066G   22272.45691539  .00000830  00000+0  13551-3 0  9998
2 41847  98.5407 336.9736 0362131 258.6989  97.3309 14.38739758309300
NAYIF-1 (EO-88)         
1 42017U 17008BX  22272.14309180  .00020495  00000+0  55474-3 0  9998
2 42017  97.2582 336.9048 0003880 216.0745 144.0238 15.37707985312994
ZHUHAI-1 02 (CAS-4B)    
1 42759U 17034B   22272.47358499  .00004016  00000+0  23862-3 0  9990
2 42759  43.0174 119.0706 0010125 232.3017 202.1648 15.12571647292105
ZHUHAI-1 01 (CAS-4A)    
1 42761U 17034D   22272.62770451  .00004168  00000+0  24657-3 0  9997
2 42761  43.0167 116.9303 0010707 234.1157 157.7368 15.12654722292133
MAX VALIER SAT          
1 42778U 17036P   22272.33788542  .00009175  00000+0  33347-3 0  9994
2 42778  97.1947 309.9131 0009015 324.7486  35.3157 15.28448915292769
RADFXSAT (FOX-1B)       
1 43017U 17073E   22272.43548050  .00003787  00000+0  28555-3 0  9999
2 43017  97.6590 162.3484 0245592 206.8144 152.0202 14.82086941262514
FOX-1D (AO-92)          
1 43137U 18004AC  22272.46108883  .00011199  00000+0  37386-3 0  9994
2 43137  97.3605 346.7592 0007077   4.6005 355.5300 15.31188327262259
DIWATA-2B               
1 43678U 18084H   22272.45078720  .00000524  00000+0  57082-4 0  9993
2 43678  97.9853  47.0306 0008914 308.4954  51.5485 14.92322365213366
ES'HAIL 2               
1 43700U 18090A   22272.56854809  .00000148  00000+0  00000+0 0  9993
2 43700   0.0192 165.0720 0002205  53.7907  19.9323  1.00271969 14073
FOX-1CLIFF (AO-95)      
1 43770U 18099N   22272.42046290  .00002344  00000+0  20907-3 0  9993
2 43770  97.6108 336.0461 0012590 289.3936  70.5925 14.96868735208560
ITASAT 1                
1 43786U 18099AE  22272.40558216  .00003279  00000+0  28978-3 0  9998
2 43786  97.6139 337.0035 0012805 280.8189  79.1591 14.96956499208608
JY1SAT (JO-97)          
1 43803U 18099AX  22271.91809728  .00003253  00000+0  28333-3 0  9997
2 43803  97.6090 336.3188 0013101 279.6686  80.3057 14.97537462208554
UWE-4                   
1 43880U 18111E   22272.31011125  .00002920  00000+0  24769-3 0  9997
2 43880  97.6585 176.7880 0011603 341.2398  18.8396 14.98660928205255
NEXUS (FO-99)           
1 43937U 19003F   22272.03904068  .00015604  00000+0  48890-3 0  9991
2 43937  97.1224 301.4682 0020986 138.9492 221.3335 15.32944224205831
PSAT2 (NO-104)          
1 44354U 19036R   22272.07089805  .00118305 -27973-5  84521-3 0  9996
2 44354  28.5211 174.3491 0188641  67.7941 294.2560 15.52034103180722
JAISAT-1                
1 44419U 19038F   22272.45498864  .00009639  00000+0  46432-3 0  9994
2 44419  97.6477 243.5772 0020448 127.5258 232.7838 15.18772385178839
DUCHIFAT-3              
1 44854U 19089C   22272.55333597  .00004370  00000+0  33548-3 0  9996
2 44854  36.9652 202.9247 0008715 340.7517 188.1222 15.01692575153589
CAS-6 (TIANQIN 1)       
1 44881U 19093C   22272.50367169  .00000565  00000+0  78065-4 0  9994
2 44881  97.8872 350.1943 0014252 203.1146 156.9433 14.81829771150188
RS-44 & BREEZE-KM R/B   
1 44909U 19096E   22272.40841444  .00000029  00000+0  63179-4 0  9995
2 44909  82.5239 161.2311 0218390  76.7031 285.8323 12.79715209128802
ORBITAL FACTORY 2 (OF-2)
1 45113U 19071C   22272.25386392  .00037020  00000+0  63727-3 0  9994
2 45113  51.6363 266.7964 0007092 180.2083 179.8904 15.50693919149459
HUSKYSAT-1 (HO-107)     
1 45119U 19071J   22272.47099863  .00031496  00000+0  57555-3 0  9991
2 45119  51.6360 266.7138 0007314 177.8850 182.2171 15.49076205149462
BY70-2                  
1 45857U 20042B   22272.51953186  .00006975  00000+0  90725-3 0  9992
2 45857  97.9506 348.4182 0011516 136.5545 223.6611 14.80926523120857
SALSAT                  
1 46495U 20068K   22272.56846244  .00003191  00000+0  22936-3 0  9996
2 46495  97.7372 213.9582 0014407 287.0574  72.9074 15.04922271109848
BY70-3                  
1 46839U 20079N   22272.46800110  .00032625  00000+0  66005-3 0  9990
2 46839  97.1892 343.4398 0003806 320.6748 166.5230 15.46376877106294
RADFXSAT-2 (AO-109)     
1 47311U 21002C   22272.51754545  .00009516  00000+0  36277-3 0  9990
2 47311  60.6853 330.0827 0034125  44.7615 315.6218 15.26810625 94354
UVSQ-SAT                
1 47438U 21006AB  22272.42272581  .00006385  00000+0  32845-3 0  9997
2 47438  97.4261 329.3096 0009957 273.7419  86.2675 15.16746518 93035
DIY-1 (ARDUIQUBE)       
1 47963U 21022AH  22272.25264493  .00018199  00000+0  93602-3 0  9996
2 47963  97.5192 172.5448 0017801 127.4154 232.8702 15.16363374 82661
XW-3 (CAS-9)            
1 50466U 21131B   22272.57598531  .00000300  00000+0  11268-3 0  9990
2 50466  98.5744 349.7512 0004643 184.5535 175.5611 14.38531253 39888
TEVEL-3                 
1 50988U 22002E   22272.59433634  .00008173  00000+0  43262-3 0  9996
2 50988  97.4723 337.8664 0010641  68.4203  37.6332 15.15641450 39183
TEVEL-8                 
1 50989U 22002F   22272.47456340  .00007915  00000+0  41978-3 0  9998
2 50989  97.4737 337.7789 0010614  68.2075  57.2215 15.15584330 39160
TEVEL-5                 
1 50998U 22002Q   22272.58226000  .00008514  00000+0  44387-3 0  9991
2 50998  97.4713 338.0084 0012146  63.2649  46.4801 15.16149595 39195
TEVEL-6                 
1 50999U 22002R   22272.58159034  .00008521  00000+0  44421-3 0  9991
2 50999  97.4718 338.0075 0012109  63.7292  45.9670 15.16155202 39199
TEVEL-1                 
1 51013U 22002AF  22272.46987448  .00007980  00000+0  42288-3 0  9991
2 51013  97.4721 337.7185 0010418  66.8583  58.9638 15.15610875 39163
TEVEL-7                 
1 51062U 22002CG  22272.47643363  .00007888  00000+0  41846-3 0  9997
2 51062  97.4736 337.7637 0010497  66.5200  58.7938 15.15577194 39162
TEVEL-4                 
1 51063U 22002CH  22272.54018406  .00007863  00000+0  41724-3 0  9998
2 51063  97.4733 337.8217 0010635  66.6216  40.3719 15.15567251 39175
TEVEL-2                 
1 51069U 22002CP  22272.46746065  .00007998  00000+0  42356-3 0  9995
2 51069  97.4719 337.7268 0010604  68.2410  57.7623 15.15631390 39161
GREENCUBE               
1 53106U 22080B   22270.63842984 -.00000003  00000+0  00000+0 0  9996
2 53106  70.1628  50.9274 0008650 240.4290 119.5508  6.42557874  4885
YUZGU 9 (RS3S)          
1 53308U 98067TT  22272.45569157  .00057681  00000+0  82484-3 0  9991
2 53308  51.6395 178.7688 0002259 211.3316 148.7541 15.55654707 10916
YUZGU 7 (RS1S)          
1 53309U 98067TU  22272.45217882  .00060148  00000+0  85352-3 0  9996
2 53309  51.6389 178.7433 0001841 230.7171 129.3657 15.55846683 10861
YUZGU 11 (RS5S)         
1 53310U 98067TV  22272.45532827  .00057482  00000+0  82180-3 0  9990
2 53310  51.6394 178.7672 0001690 226.7870 133.2980 15.55663248 10897
YUZGU 12 (RS6S)         
1 53311U 98067TW  22272.44646366  .00063023  00000+0  88658-3 0  9998
2 53311  51.6384 178.7044 0002663 202.8266 157.2608 15.56060663 10914
TSIOLKOVSKY-RYAZAN 1 (*)
1 53312U 98067TX  22272.45025163  .00060228  00000+0  85454-3 0  9991
2 53312  51.6391 178.7321 0001760 238.1971 121.8849 15.55849697 10851
TSIOLKOVSKY-RYAZAN 2 (*)
1 53313U 98067TY  22272.44833354  .00058711  00000+0  83222-3 0  9995
2 53313  51.6391 178.7197 0001388 225.6859 134.4018 15.55886936 10906
YUZGU 10 (RS4S)         
1 53321U 98067TZ  22272.45541849  .00059101  00000+0  84211-3 0  9993
2 53321  51.6397 178.7699 0002070 215.7494 144.3359 15.55742370 10903
RS29S (SXC3-2110 CYCLO*)
1 53373U 22096D   22272.51217438  .00010974  00000+0  43926-3 0  9993
2 53373  97.4305 173.6015 0003083  48.9780  58.6644 15.25235627  7800
RS32S (SXC3-212 MONITO*)
1 53374U 22096E   22272.52088201  .00011092  00000+0  44243-3 0  9994
2 53374  97.4306 173.6173 0002786  48.2812 127.2561 15.25351340  7807
RS34S (SXC3-218 KUZBAS*)
1 53375U 22096F   22272.57702640  .00009277  00000+0  37155-3 0  9996
2 53375  97.4309 173.6720 0002851  43.9751  76.1671 15.25265889  7813
RS23S (SXC3-21 UTMN)    
1 53376U 22096G   22272.50730752  .00009554  00000+0  38232-3 0  9990
2 53376  97.4306 173.6041 0002767  41.7123  61.2637 15.25283665  7800
RS28S (SXC3-214 MIET-A*)
1 53377U 22096H   22272.57132685  .00008966  00000+0  35867-3 0  9996
2 53377  97.4315 173.6722 0002707  43.7510  56.3359 15.25312658  7815
RS26S (KAI-1)           
1 53378U 22096J   22272.50638220  .00008188  00000+0  32819-3 0  9996
2 53378  97.4306 173.6070 0002392  38.4827  67.2029 15.25277732  7801
RS19S (SXC3-219 ISOI)   
1 53381U 22096M   22272.56057963  .00009394  00000+0  37065-3 0  9993
2 53381  97.4311 173.6942 0001963 282.4873 200.0596 15.25762135  7817
RS21S (CUBESX-HSE-2)    
1 53383U 22096P   22272.55847517  .00008359  00000+0  32985-3 0  9992
2 53383  97.4306 173.6971 0002199 279.6158 201.4603 15.25794929  7811
RS30S (SXC3-217 SIREN)  
1 53384U 22096Q   22272.55841701  .00008135  00000+0  32116-3 0  9990
2 53384  97.4313 173.6973 0002294 277.2736 205.3091 15.25788540  7810
RS20S (GEOSCAN-EDELVEIS)
1 53385U 22096R   22272.60372895  .00011365  00000+0  44285-3 0  9999
2 53385  97.4309 173.7580 0002610 279.3886 131.6479 15.26127625  7859
RS33S (SXC3-215 VIZARD) 
1 53386U 22096S   22272.53836441  .00013998  00000+0  53841-3 0  9996
2 53386  97.4311 173.7145 0003260 275.1058 187.1900 15.26506753  7833
